satname,norad_id,inclination_deg,eccentricity,mean_motion_rev_per_day,perigee_km,apogee_km,l1,l2
STARLINK-1309,45414,53.0617,0.0006017,15.65443562,367.90184741344456,376.0249182141233,1 45414U 20019BG  26128.44202559  .00038306  00000+0  37955-3 0  9991,2 45414  53.0617 192.3903 0006017 316.0655  43.9881 15.65443562339367
STARLINK-1316,45415,53.1555,0.0005444,15.36015321,454.18483172550987,461.6279157508352,1 45415U 20019BH  26128.52565153  .00049337  00000+0  13880-2 0  9999,2 45415  53.1555 210.1946 0005444 336.2236  23.8515 15.36015321339174
STARLINK-1286,45417,53.0458,0.0002999,15.55885527,397.5470953747781,401.6123698710053,1 45417U 20019BK  26128.63649728  .00038107  00000+0  54463-3 0  9990,2 45417  53.0458 201.6120 0002999 318.5562  41.5221 15.55885527339549
STARLINK-1308,45419,53.0474,0.0007099,15.61783309,377.7064101566193,387.30517079053334,1 45419U 20019BM  26128.53786867  .00096614  00000+0  10876-2 0  9993,2 45419  53.0474 222.2558 0007099 303.0817  56.9514 15.61783309338996
STARLINK-1329,45531,53.0423,0.0005024,15.69579116,356.71602542443634,363.48660728470986,1 45531U 20025A   26128.47826581  .00049725  00000+0  41480-3 0  9993,2 45531  53.0423 147.8964 0005024  37.6063 322.5304 15.69579116334810
STARLINK-1338,45532,53.0437,0.0004422,15.64986129,370.29317651824203,376.26412852133035,1 45532U 20025B   26128.34429738  .00037538  00000+0  37905-3 0  9999,2 45532  53.0437 154.0987 0004422  15.9068 344.2084 15.64986129334712
STARLINK-1350,45535,53.0717,0.00014,15.37583717,452.3004987900331,454.213289080335,1 45535U 20025E   26128.68356318  .00025669  00000+0  69391-3 0  9998,2 45535  53.0717 111.0607 0001400  55.6841 304.4294 15.37583717335382
STARLINK-1362,45538,53.1574,0.000259,15.34449406,460.7846595129895,464.32813869372603,1 45538U 20025H   26128.86845122 -.00123678  00000+0 -37033-2 0  9995,2 45538  53.1574 180.6822 0002590  45.2403 314.8810 15.34449406334402
STARLINK-1368,45540,53.157,0.0003849,15.3483417,458.78055684423634,464.0456425109678,1 45540U 20025K   26128.42644316  .00045739  00000+0  13379-2 0  9998,2 45540  53.1570 183.1232 0003849  22.5635 337.5537 15.34834170334322
STARLINK-1371,45542,53.0456,0.0006822,15.57257175,390.97818393797024,400.22026964580436,1 45542U 20025M   26128.50148992  .00086106  00000+0  11535-2 0  9993,2 45542  53.0456 161.4816 0006822  12.8614 347.2570 15.57257175334623
STARLINK-1372,45543,53.1567,0.0003689,15.35401479,457.2057631242951,462.2507401069379,1 45543U 20025N   26128.85103037  .00041980  00000+0  12074-2 0  9993,2 45543  53.1567 180.7466 0003689  15.3189 344.7925 15.35401479333490
STARLINK-1373,45544,53.0448,0.000393,15.6672824,365.62159684130984,370.92427505096384,1 45544U 20025P   26128.77994050  .00041436  00000+0  38961-3 0  9998,2 45544  53.0448 157.5875 0003930 349.6658  10.4275 15.66728240334709
STARLINK-1327,45555,53.0413,0.0005109,15.64475018,371.29897272879316,378.1990716662758,1 45555U 20025AA  26128.71289372  .00112718  00000+0  11396-2 0  9992,2 45555  53.0413 134.5703 0005109 354.6757   5.4202 15.64475018335013
STARLINK-1356,45564,53.0471,0.000414,15.54015442,402.2079034913677,407.82435428208555,1 45564U 20025AK  26128.77978063  .00070239  00000+0  10643-2 0  9995,2 45564  53.0471 145.7183 0004140 359.5243   0.5762 15.54015442334860
STARLINK-1357,45565,53.0452,0.0007859,15.66189897,364.5155813402007,375.122018266331,1 45565U 20025AL  26128.23132723  .00046431  00000+0  44471-3 0  9996,2 45565  53.0452 107.2477 0007859  29.3509 330.7946 15.66189897335363
STARLINK-1361,45567,53.0446,0.000228,15.57585717,393.1024745485902,396.1908639017556,1 45567U 20025AN  26128.74399920  .00094144  00000+0  12449-2 0  9991,2 45567  53.0446 144.5578 0002280 358.3514   1.7489 15.57585717334882
STARLINK-1363,45568,53.0321,0.0002134,15.9837127,277.51658871349537,280.3578279856192,1 45568U 20025AP  26128.91668980  .00319734  53194-4  67387-3 0  9990,2 45568  53.0321  92.7795 0002134 104.6894 106.4509 15.98371270  5929
STARLINK-1366,45569,53.0338,0.0002029,15.93925195,289.9576689990481,292.66413095685857,1 45569U 20025AQ  26128.91668980  .00248303  34806-4  66905-3 0  9998,2 45569  53.0338  94.4962 0002029  60.0192 332.1864 15.93925195  6011
STARLINK-1376,45570,53.1562,0.0005411,15.35673503,455.2212049812697,462.62026886416606,1 45570U 20025AR  26128.37904515  .00041661  00000+0  11878-2 0  9997,2 45570  53.1562 159.4342 0005411  13.0733 347.0410 15.35673503334659
STARLINK-1320,45572,53.0459,0.0003414,15.79431377,329.7598175305411,334.3415336754433,1 45572U 20025AT  26128.49624278  .00099107  00000+0  53371-3 0  9990,2 45572  53.0459  48.3042 0003414 183.9731 176.1263 15.79431377336225
STARLINK-1321,45573,53.0419,0.0005668,15.58888104,387.03721329607924,394.71056403947296,1 45573U 20025AU  26128.70976744  .00083222  00000+0  10496-2 0  9994,2 45573  53.0419 128.8583 0005668  24.6341 335.4940 15.58888104334790
STARLINK-1331,45578,53.0476,0.000719,15.58333875,387.61067519163316,397.34682063713353,1 45578U 20025AZ  26128.85610858  .00080665  00000+0  10389-2 0  9995,2 45578  53.0476 134.9729 0007190   6.4501 353.6601 15.58333875335030
STARLINK-1333,45580,53.1564,0.0003252,15.32675512,465.6072775578614,470.0598968277718,1 45580U 20025BB  26128.49759590  .00044783  00000+0  14027-2 0  9999,2 45580  53.1564 159.7434 0003252  38.4906 321.6328 15.32675512334667
STARLINK-1335,45581,53.1535,0.0004293,15.34229763,460.27227727982154,466.14625718486695,1 45581U 20025BC  26128.36250094  .00043499  00000+0  12978-2 0  9997,2 45581  53.1535 157.4387 0004293  27.3769 332.7459 15.34229763334672
STARLINK-1337,45582,53.0469,0.0007532,15.70516673,352.3461281447735,362.49257022918755,1 45582U 20025BD  26128.81193538  .00132049  00000+0  10406-2 0  9991,2 45582  53.0469 127.1064 0007532  15.6651 344.4598 15.70516673335127
STARLINK-1347,45586,53.0391,0.0004998,15.6548091,368.48237685185813,375.22966987801374,1 45586U 20025BH  26128.63568182  .00046718  00000+0  46066-3 0  9995,2 45586  53.0391  97.3058 0004998  45.7195 314.4229 15.65480910335526
STARLINK-1364,45589,53.0442,0.0005246,15.59894885,384.4115286377337,391.51051868415925,1 45589U 20025BL  26128.85063846  .00046848  00000+0  57405-3 0  9992,2 45589  53.0442 132.3827 0005246 350.2308   9.8601 15.59894885335057
STARLINK-1365,45590,53.0471,0.0005319,15.54668223,399.5102865442932,406.7241848002004,1 45590U 20025BM  26128.82447492  .00080295  00000+0  11853-2 0  9994,2 45590  53.0471 164.9501 0005319 347.7315  12.3565 15.54668223334610
STARLINK-1443,45660,53.1339,0.0004358,15.30242518,472.10148576686424,478.0747567825665,1 45660U 20035D   26128.44147534  .00036401  00000+0  12333-2 0  9999,2 45660  53.1339 148.2320 0004358   7.5762 352.5303 15.30242518327895
STARLINK-1446,45663,53.0224,0.0004727,15.45947892,425.3767604257473,431.8118441989527,1 45663U 20035G   26128.86974161  .00031619  00000+0  64484-3 0  9993,2 45663  53.0224  72.9071 0004727  86.7035 273.4511 15.45947892328973
STARLINK-1448,45665,53.0442,0.0007377,15.64898986,368.54858562717345,378.5099940712171,1 45665U 20035J   26128.85339902  .00049568  00000+0  49935-3 0  9998,2 45665  53.0442 120.1709 0007377   8.2373 351.8761 15.64898986328304
STARLINK-1451,45668,53.0501,0.000217,15.12934742,525.7571677497672,528.7541081546378,1 45668U 20035M   26128.91668980  .00052091  00000+0  29175-2 0  9997,2 45668  53.0501 153.4999 0002170  31.8149 339.8539 15.12934742  5813
STARLINK-1452,45669,53.0272,0.0001268,15.53954455,404.3334772888911,406.0537299299667,1 45669U 20035N   26128.60054561  .00083316  00000+0  12622-2 0  9991,2 45669  53.0272  94.3306 0001268  49.5841 310.5279 15.53954455328651
STARLINK-1453,45670,53.0407,0.0003417,15.65242745,370.23401200170974,374.8474251545849,1 45670U 20035P   26128.89259740  .00053571  00000+0  53217-3 0  9996,2 45670  53.0407  80.3674 0003417  88.9475 271.1931 15.65242745328768
STARLINK-1454,45671,53.0445,0.0004359,15.62668322,377.0071168173581,382.8988196516657,1 45671U 20035Q   26128.70057687  .00125384  00000+0  13582-2 0  9995,2 45671  53.0445 121.8120 0004359 354.9358   5.1610 15.62668322328264
STARLINK-1456,45673,53.0436,0.0007633,15.60755563,380.31068992903784,390.63601749501504,1 45673U 20035S   26128.44589309  .00104998  00000+0  12277-2 0  9997,2 45673  53.0436 117.2937 0007633  39.6790 320.4779 15.60755563328324
STARLINK-1457,45674,53.0347,0.0001388,16.07610863,252.48498014794495,254.325896328799,1 45674U 20035T   26129.01295529  .00567954  17134-3  68780-3 0  9996,2 45674  53.0347  75.2302 0001388 147.3664 212.7454 16.07610863328927
STARLINK-1458,45675,53.0475,0.0006333,15.52035812,406.4834459073545,415.0822918132526,1 45675U 20035U   26128.29327019  .00097929  00000+0  15846-2 0  9990,2 45675  53.0475 130.6239 0006333 358.1873   1.9112 15.52035812328084
STARLINK-1460,45676,53.1558,0.0004011,15.32567034,465.4105821909161,470.9026789413556,1 45676U 20035V   26128.33948126  .00039279  00000+0  12367-2 0  9993,2 45676  53.1558 147.6325 0004011  43.0995 317.0321 15.32567034327859
STARLINK-1392,45677,53.1526,0.0003401,15.3562349,456.7438509077365,461.39451855459083,1 45677U 20035W   26128.29040022  .00043490  00000+0  12415-2 0  9991,2 45677  53.1526 147.1989 0003401  45.8548 314.2734 15.35623490327895
STARLINK-1394,45679,53.0417,0.0008237,15.60674841,380.13519429594,391.2779501968589,1 45679U 20035Y   26128.63586750  .00101201  00000+0  11875-2 0  9998,2 45679  53.0417 106.5960 0008237  46.7262 313.4436 15.60674841328488
STARLINK-1402,45685,53.0426,0.0007764,15.54139612,399.38866529138886,409.920984437038,1 45685U 20035AE  26128.63568007  .00057347  00000+0  86706-3 0  9997,2 45685  53.0426  95.8825 0007764  68.0327 292.1507 15.54139612328643
STARLINK-1404,45686,53.1581,0.0004973,15.41306364,438.8609786612942,445.6445383150867,1 45686U 20035AF  26128.27203976  .00066294  00000+0  15630-2 0  9997,2 45686  53.1581 130.2087 0004973  52.0678 308.0776 15.41306364328137
